NORAD_CAT_ID,OBJECT_NAME,OBJECT_TYPE,EPOCH,MEAN_MOTION,ECCENTRICITY,INCLINATION,RA_OF_ASC_NODE,ARG_OF_PERICENTER,MEAN_ANOMALY,BSTAR,MEAN_MOTION_DOT,MEAN_MOTION_DDOT,TLE_LINE0,TLE_LINE1,TLE_LINE2,SEMIMAJOR_AXIS,PERIOD,APOGEE,PERIGEE,DECAYED
52630.0,STARLINK-3989,PAYLOAD,2023-11-17 13:16:27,15.08840019,0.0001299,53.2188,94.1105,90.6295,269.4846,8.3038e-05,1.034e-05,0.0,0 STARLINK-3989,1 52630U 22052AJ  23321.55309492  .00001034  00000-0  83038-4 0  9999,2 52630  53.2188  94.1105 0001299  90.6295 269.4846 15.08840019 83700,6917.88,95.438,540.644,538.847,0.0
52630.0,STARLINK-3989,PAYLOAD,2023-11-18 14:42:37,15.08841461,0.0001322,53.2186,89.3518,84.4126,275.7017,0.00010918,1.45e-05,0.0,0 STARLINK-3989,1 52630U 22052AJ  23322.61293642  .00001450  00000-0  10918-3 0  9994,2 52630  53.2186  89.3518 0001322  84.4126 275.7017 15.08841461 83862,6917.876,95.437,540.655,538.826,0.0
52630.0,STARLINK-3989,PAYLOAD,2023-11-19 14:33:24,15.08842182,0.0001098,53.2172,84.8904,84.0811,276.0306,0.00022564,3.305e-05,0.0,0 STARLINK-3989,1 52630U 22052AJ  23323.60653683  .00003305  00000-0  22564-3 0  9990,2 52630  53.2172  84.8904 0001098  84.0811 276.0306 15.08842182 84017,6917.874,95.437,540.498,538.979,0.0
52630.0,STARLINK-3989,PAYLOAD,2023-11-20 01:41:06,15.08842701,0.0001469,53.2176,82.8082,93.6201,266.4959,0.00012601,1.718e-05,0.0,0 STARLINK-3989,1 52630U 22052AJ  23324.07021525  .00001718  00000-0  12601-3 0  9993,2 52630  53.2176  82.8082 0001469  93.6201 266.4959 15.08842701 84460,6917.872,95.437,540.753,538.721,0.0
52630.0,STARLINK-3989,PAYLOAD,2023-11-20 14:24:11,15.08846124,0.0001508,53.2183,80.4303,94.2492,265.8672,0.00017114,2.437e-05,0.0,0 STARLINK-3989,1 52630U 22052AJ  23324.60013397  .00002437  00000-0  17114-3 0  9993,2 52630  53.2183  80.4303 0001508  94.2492 265.8672 15.08846124 84166,6917.862,95.437,540.77,538.683,0.0
52630.0,STARLINK-3989,PAYLOAD,2023-11-20 17:34:57,15.08849275,0.0001497,53.2186,79.8363,91.8696,268.2468,0.00021245,3.096e-05,0.0,0 STARLINK-3989,1 52630U 22052AJ  23324.73261223  .00003096  00000-0  21245-3 0  9992,2 52630  53.2186  79.8363 0001497  91.8696 268.2468 15.08849275 84185,6917.852,95.437,540.753,538.681,0.0
52630.0,STARLINK-3989,PAYLOAD,2023-11-21 11:04:12,15.0883463,0.0001431,53.218,76.5648,93.9822,266.1334,4.4584e-06,-2.17e-06,0.0,0 STARLINK-3989,1 52630U 22052AJ  23325.46126133 -.00000217  00000-0  44584-5 0  9999,2 52630  53.2180  76.5648 0001431  93.9822 266.1334 15.08834630 84673,6917.897,95.438,540.752,538.772,0.0
52630.0,STARLINK-3989,PAYLOAD,2023-11-21 12:39:36,15.08836066,0.0001387,53.2182,76.2669,95.5684,264.5466,-1.896e-05,-5.9e-06,0.0,0 STARLINK-3989,1 52630U 22052AJ  23325.52750083 -.00000590  00000-0 -18960-4 0  9996,2 52630  53.2182  76.2669 0001387  95.5684 264.5466 15.08836066 84302,6917.892,95.438,540.717,538.798,0.0
52630.0,STARLINK-3989,PAYLOAD,2023-11-22 10:54:59,15.08853067,0.0001561,53.2187,72.1052,91.5544,268.5627,0.00025376,3.754e-05,0.0,0 STARLINK-3989,1 52630U 22052AJ  23326.45485054  .00003754  00000-0  25376-3 0  9993,2 52630  53.2187  72.1052 0001561  91.5544 268.5627 15.08853067 84823,6917.84,95.437,540.785,538.626,0.0
52630.0,STARLINK-3989,PAYLOAD,2023-11-22 14:05:44,15.08873899,0.0001495,53.2181,71.5092,91.7704,268.3459,0.0007064,0.00010983,0.0,0 STARLINK-3989,1 52630U 22052AJ  23326.58732505  .00010983  00000-0  70640-3 0  9999,2 52630  53.2181  71.5092 0001495  91.7704 268.3459 15.08873899 84466,6917.777,95.435,540.676,538.608,0.0
52630.0,STARLINK-3989,PAYLOAD,2023-11-23 10:45:46,15.08841438,0.000198,53.2195,67.6453,123.6126,236.5055,9.6851e-05,1.254e-05,0.0,0 STARLINK-3989,1 52630U 22052AJ  23327.44845441  .00001254  00000-0  96851-4 0  9993,2 52630  53.2195  67.6453 0001980 123.6126 236.5055 15.08841438 84979,6917.876,95.437,541.111,538.371,0.0
52630.0,STARLINK-3989,PAYLOAD,2023-11-23 12:21:09,15.08840941,0.0001854,53.2195,67.3481,120.0665,240.0512,7.0748e-05,8.38e-06,0.0,0 STARLINK-3989,1 52630U 22052AJ  23327.51469452  .00000838  00000-0  70748-4 0  9999,2 52630  53.2195  67.3481 0001854 120.0665 240.0512 15.08840941 84602,6917.878,95.437,541.025,538.46,0.0
52630.0,STARLINK-3989,PAYLOAD,2023-11-24 12:11:57,15.08837473,0.0001686,53.2192,62.8898,110.6589,249.4584,-0.00028859,-4.878e-05,0.0,0 STARLINK-3989,1 52630U 22052AJ  23328.50829870 -.00004878  00000-0 -28859-3 0  9998,2 52630  53.2192  62.8898 0001686 110.6589 249.4584 15.08837473 85131,6917.888,95.438,540.919,538.587,0.0
52630.0,STARLINK-3989,PAYLOAD,2023-11-24 13:47:20,15.08839026,0.0001558,53.219,62.5924,102.482,257.6346,-0.0002578,-4.388e-05,0.0,0 STARLINK-3989,1 52630U 22052AJ  23328.57453858 -.00004388  00000-0 -25780-3 0  9990,2 52630  53.2190  62.5924 0001558 102.4820 257.6346 15.08839026 84762,6917.883,95.438,540.826,538.671,0.0
52630.0,STARLINK-3989,PAYLOAD,2023-11-24 15:22:43,15.08839198,0.0001594,53.2189,62.2884,81.0795,279.0377,-0.00020061,-3.479e-05,0.0,0 STARLINK-3989,1 52630U 22052AJ  23328.64077711 -.00003479  00000-0 -20061-3 0  9995,2 52630  53.2189  62.2884 0001594  81.0795 279.0377 15.08839198 84778,6917.883,95.438,540.851,538.645,0.0
52630.0,STARLINK-3989,PAYLOAD,2023-11-25 13:38:07,15.08852874,0.000157,53.219,58.1274,89.6241,270.4931,0.00044134,6.745e-05,0.0,0 STARLINK-3989,1 52630U 22052AJ  23329.56813806  .00006745  00000-0  44134-3 0  9994,2 52630  53.2190  58.1274 0001570  89.6241 270.4931 15.08852874 84914,6917.841,95.437,540.792,538.62,0.0
52630.0,STARLINK-3989,PAYLOAD,2023-11-26 11:53:30,15.08855554,0.0001847,53.2198,53.9646,77.3419,282.7779,0.00027776,4.137e-05,0.0,0 STARLINK-3989,1 52630U 22052AJ  23330.49549213  .00004137  00000-0  27776-3 0  9992,2 52630  53.2198  53.9646 0001847  77.3419 282.7779 15.08855554 85438,6917.833,95.437,540.976,538.42,0.0
52630.0,STARLINK-3989,PAYLOAD,2023-11-26 13:28:53,15.08867762,0.0001662,53.2194,53.673,67.9619,292.155,0.00045581,6.979e-05,0.0,0 STARLINK-3989,1 52630U 22052AJ  23330.56172764  .00006979  00000-0  45581-3 0  9993,2 52630  53.2194  53.6730 0001662  67.9619 292.1550 15.08867762 85062,6917.796,95.436,540.81,538.511,0.0
52630.0,STARLINK-3989,PAYLOAD,2023-11-26 15:04:16,15.0887009,0.0001622,53.2197,53.3701,70.4767,289.6401,0.00048291,7.412e-05,0.0,0 STARLINK-3989,1 52630U 22052AJ  23330.62796515  .00007412  00000-0  48291-3 0  9990,2 52630  53.2197  53.3701 0001622  70.4767 289.6401 15.08870090 85456,6917.788,95.436,540.775,538.531,0.0
52630.0,STARLINK-3989,PAYLOAD,2023-11-27 11:44:19,15.08820612,0.0001732,53.2199,49.506,86.2897,273.8293,-0.00038204,-6.36e-05,0.0,0 STARLINK-3989,1 52630U 22052AJ  23331.48911418 -.00006360  00000-0 -38204-3 0  9992,2 52630  53.2199  49.5060 0001732  86.2897 273.8293 15.08820612 85587,6917.94,95.439,541.003,538.606,0.0
52630.0,STARLINK-3989,PAYLOAD,2023-11-28 11:35:06,15.08850925,0.0001865,53.22,45.0443,98.2953,261.8251,0.00014998,2.1e-05,0.0,0 STARLINK-3989,1 52630U 22052AJ  23332.48271075  .00002100  00000-0  14998-3 0  9991,2 52630  53.2200  45.0443 0001865  98.2953 261.8251 15.08850925 85737,6917.847,95.437,541.002,538.422,0.0
52630.0,STARLINK-3989,PAYLOAD,2023-11-29 11:25:53,15.08852084,0.0001903,53.2191,40.5857,105.2172,254.9031,0.00060168,9.304e-05,0.0,0 STARLINK-3989,1 52630U 22052AJ  23333.47631357  .00009304  00000-0  60168-3 0  9997,2 52630  53.2191  40.5857 0001903 105.2172 254.9031 15.08852084 85883,6917.843,95.437,541.025,538.392,0.0
52630.0,STARLINK-3989,PAYLOAD,2023-11-30 11:16:42,15.08802225,0.0001969,53.2187,36.1264,95.1201,265.0016,-0.00073731,-0.00011991,0.0,0 STARLINK-3989,1 52630U 22052AJ  23334.46993492 -.00011991  00000-0 -73731-3 0  9995,2 52630  53.2187  36.1264 0001969  95.1201 265.0016 15.08802225 86039,6917.996,95.44,541.223,538.499,0.0
52630.0,STARLINK-3989,PAYLOAD,2023-12-01 03:10:33,15.08822865,0.0001706,53.2181,33.1526,94.4692,265.6495,-0.00042688,-7.072e-05,0.0,0 STARLINK-3989,1 52630U 22052AJ  23335.13232953 -.00007072  00000-0 -42688-3 0  9990,2 52630  53.2181  33.1526 0001706  94.4692 265.6495 15.08822865 86136,6917.933,95.439,540.978,538.618,0.0
52630.0,STARLINK-3989,PAYLOAD,2023-12-01 07:56:42,15.08829722,0.0002112,53.219,32.2688,100.5189,259.6041,-0.00028463,-4.814e-05,0.0,0 STARLINK-3989,1 52630U 22052AJ  23335.33104726 -.00004814  00000-0 -28463-3 0  9994,2 52630  53.2190  32.2688 0002112 100.5189 259.6041 15.08829722 86169,6917.912,95.438,541.238,538.316,0.0
52630.0,STARLINK-3989,PAYLOAD,2023-12-01 12:42:51,15.08853518,0.0001991,53.2179,31.3642,91.0967,269.0253,0.00013032,1.787e-05,0.0,0 STARLINK-3989,1 52630U 22052AJ  23335.52975723  .00001787  00000-0  13032-3 0  9998,2 52630  53.2179  31.3642 0001991  91.0967 269.0253 15.08853518 86191,6917.839,95.437,541.081,538.327,0.0
52630.0,STARLINK-3989,PAYLOAD,2023-12-02 10:58:15,15.08826445,0.0001895,53.2176,27.2044,91.7797,268.3412,-0.0001763,-3.092e-05,0.0,0 STARLINK-3989,1 52630U 22052AJ  23336.45712307 -.00003092  00000-0 -17630-3 0  9999,2 52630  53.2176  27.2044 0001895  91.7797 268.3412 15.08826445 86333,6917.922,95.438,541.098,538.476,0.0
52630.0,STARLINK-3989,PAYLOAD,2023-12-02 12:33:38,15.08823937,0.0001755,53.2173,26.9065,100.8536,259.2653,-0.00024115,-4.122e-05,0.0,0 STARLINK-3989,1 52630U 22052AJ  23336.52336313 -.00004122  00000-0 -24115-3 0  9997,2 52630  53.2173  26.9065 0001755 100.8536 259.2653 15.08823937 85964,6917.929,95.439,541.009,538.58,0.0
52630.0,STARLINK-3989,PAYLOAD,2023-12-03 12:24:26,15.0882345,0.0002042,53.2186,22.4436,96.4951,263.6274,-0.00030061,-5.067e-05,0.0,0 STARLINK-3989,1 52630U 22052AJ  23337.51697776 -.00005067  00000-0 -30061-3 0  9996,2 52630  53.2186  22.4436 0002042  96.4951 263.6274 15.08823450 86118,6917.931,95.439,541.209,538.383,0.0
52630.0,STARLINK-3989,PAYLOAD,2023-12-04 02:42:55,15.08828248,0.0001696,53.2181,19.7728,80.0319,280.0865,0.00019069,2.747e-05,0.0,0 STARLINK-3989,1 52630U 22052AJ  23338.11313737  .00002747  00000-0  19069-3 0  9990,2 52630  53.2181  19.7728 0001696  80.0319 280.0865 15.08828248 86587,6917.916,95.438,540.955,538.608,0.0
